[{"OBJECT_NAME":"QIANFAN-14","OBJECT_ID":"2024-140P","EPOCH":"2026-03-09T21:57:39.278016","MEAN_MOTION":13.51001939,"ECCENTRICITY":0.0015633,"INCLINATION":88.9683,"RA_OF_ASC_NODE":290.2714,"ARG_OF_PERICENTER":321.9511,"MEAN_ANOMALY":38.0535,"EPHEMERIS_TYPE":0,"CLASSIFICATION_TYPE":"U","NORAD_CAT_ID":60392,"ELEMENT_SET_NO":999,"REV_AT_EPOCH":7904,"BSTAR":8.6903701e-5,"MEAN_MOTION_DOT":6.8e-7,"MEAN_MOTION_DDOT":0},{"OBJECT_NAME":"SCOUT A R\/B","OBJECT_ID":"1966-076B","EPOCH":"2026-03-09T13:10:53.064192","MEAN_MOTION":13.51857711,"ECCENTRICITY":0.00321157,"INCLINATION":88.8395,"RA_OF_ASC_NODE":83.4015,"ARG_OF_PERICENTER":357.8821,"MEAN_ANOMALY":2.2189,"EPHEMERIS_TYPE":0,"CLASSIFICATION_TYPE":"U","NORAD_CAT_ID":2413,"ELEMENT_SET_NO":999,"REV_AT_EPOCH":93519,"BSTAR":0.00012403062,"MEAN_MOTION_DOT":9.4e-7,"MEAN_MOTION_DDOT":0}]
